*******************************************************************************
JPL/HORIZONS               3753 Cruithne (1986 TO)         2023-May-05 15:32:21
Rec #:    3753 (+COV) Soln.date: 2023-Mar-01_06:10:23   # obs: 1216 (1973-2022)
 
IAU76/J2000 helio. ecliptic osc. elements (au, days, deg., period=Julian yrs):
 
  EPOCH=  2456900.5 ! 2014-Aug-31.00 (TDB)         Residual RMS= .35645
   EC= .5148627256994029   QR= .4840184658385133   TP= 2457012.169995938
   OM= 126.2462939076055   W=  43.80978547847901   IN= 19.80747881540994
   A= .9976938311662474    MA= 249.5553600271496   ADIST= 1.511369196493981
   PER= .99656             N= .9890269900000001    ANGMOM= .014729875
   DAN= .53459             DDN= 1.16671            L= 168.3137556
   B= 13.566979            MOID= .0710535          TP= 2014-Dec-20.6699959380
 
Asteroid physical parameters (km, seconds, rotational period in hours):
   GM= n.a.                RAD= 1.0355             ROTPER= 27.3099
   H= 15.5                 G= .150                 B-V= n.a.
                           ALBEDO= .365            STYP= Q
 
ASTEROID comments: 
1: soln ref.= JPL#240, OCC=0
2: source=ORB
*******************************************************************************

  

*******************************************************************************
Ephemeris / WWW_USER Fri May  5 15:32:21 2023 Pasadena, USA      / Horizons
*******************************************************************************
Target body name: 3753 Cruithne (1986 TO)         {source: JPL#240}
Center body name: Earth (399)                     {source: DE441}
Center-site name: BODY CENTER
*******************************************************************************
Start time      : A.D. 2009-Sep-16 00:00:00.0000 TDB
Stop  time      : A.D. 2010-Aug-11 00:00:00.0000 TDB
Step-size       : 1440 minutes
*******************************************************************************
Center geodetic : 0.0, 0.0, 0.0                   {E-lon(deg),Lat(deg),Alt(km)}
Center cylindric: 0.0, 0.0, 0.0                   {E-lon(deg),Dxy(km),Dz(km)}
Center radii    : 6378.137, 6378.137, 6356.752 km {Equator_a, b, pole_c}
Small perturbers: Yes                             {source: SB441-N16}
Output units    : KM-S
Calendar mode   : Mixed Julian/Gregorian
Output type     : GEOMETRIC cartesian states
Output format   : 1 (position only)
EOP file        : eop.230504.p230727
EOP coverage    : DATA-BASED 1962-JAN-20 TO 2023-MAY-04. PREDICTS-> 2023-JUL-26
Reference frame : Ecliptic of J2000.0
*******************************************************************************
Initial IAU76/J2000 heliocentric ecliptic osculating elements (au, days, deg.):
  EPOCH=  2456900.5 ! 2014-Aug-31.00 (TDB)         Residual RMS= .35645        
   EC= .5148627256994029   QR= .4840184658385133   TP= 2457012.169995938       
   OM= 126.2462939076055   W=  43.80978547847901   IN= 19.80747881540994       
  Equivalent ICRF heliocentric cartesian coordinates (au, au/d):
   X= 1.215347990905840E+00  Y= 5.153520927692684E-01  Z=-2.481738801145509E-01
  VX=-7.990656955364673E-03 VY= 8.039467650712289E-03 VZ= 3.939584837771865E-03
Asteroid physical parameters (km, seconds, rotational period in hours):        
   GM= n.a.                RAD= 1.0355             ROTPER= 27.3099             
   H= 15.5                 G= .150                 B-V= n.a.                   
                           ALBEDO= .365            STYP= Q                     
*******************************************************************************
            JDTDB,            Calendar Date (TDB),                      X,                      Y,                      Z,
**************************************************************************************************************************
$$SOE
2455190.500000000, A.D. 2009-Dec-25 00:00:00.0000, -5.938024955130035E+07, -1.250946573836769E+08,  1.496771550602996E+07,
2455191.500000000, A.D. 2009-Dec-26 00:00:00.0000, -5.762259145517279E+07, -1.292323772180445E+08,  1.613477883991863E+07,
2455192.500000000, A.D. 2009-Dec-27 00:00:00.0000, -5.569020823411782E+07, -1.333701515654647E+08,  1.725976621671261E+07,
2455193.500000000, A.D. 2009-Dec-28 00:00:00.0000, -5.358196438460590E+07, -1.374967715970878E+08,  1.833970305590315E+07,
2455194.500000000, A.D. 2009-Dec-29 00:00:00.0000, -5.129790568515870E+07, -1.416008383279520E+08,  1.937191993281914E+07,
2455195.500000000, A.D. 2009-Dec-30 00:00:00.0000, -4.883925860565338E+07, -1.456709278211816E+08,  2.035408905024013E+07,
2455196.500000000, A.D. 2009-Dec-31 00:00:00.0000, -4.620840096185660E+07, -1.496957530378720E+08,  2.128425129489873E+07,
2455197.500000000, A.D. 2010-Jan-01 00:00:00.0000, -4.340880673595483E+07, -1.536643166747225E+08,  2.216083299443564E+07,
2455198.500000000, A.D. 2010-Jan-02 00:00:00.0000, -4.044496884523270E+07, -1.575660507397791E+08,  2.298265212491439E+07,
2455199.500000000, A.D. 2010-Jan-03 00:00:00.0000, -3.732230369075858E+07, -1.613909398477337E+08,  2.374891438694228E+07,
2455200.500000000, A.D. 2010-Jan-04 00:00:00.0000, -3.404704105996066E+07, -1.651296258194678E+08,  2.445920017637925E+07,
2455201.500000000, A.D. 2010-Jan-05 00:00:00.0000, -3.062610307172681E+07, -1.687734913286341E+08,  2.511344391327250E+07,
2455202.500000000, A.D. 2010-Jan-06 00:00:00.0000, -2.706697651162019E+07, -1.723147207408589E+08,  2.571190740035497E+07,
2455203.500000000, A.D. 2010-Jan-07 00:00:00.0000, -2.337758358282965E+07, -1.757463374085121E+08,  2.625514889102494E+07,
2455204.500000000, A.D. 2010-Jan-08 00:00:00.0000, -1.956615614882440E+07, -1.790622182986787E+08,  2.674398943915249E+07,
2455205.500000000, A.D. 2010-Jan-09 00:00:00.0000, -1.564111779690748E+07, -1.822570883352097E+08,  2.717947794650657E+07,
2455206.500000000, A.D. 2010-Jan-10 00:00:00.0000, -1.161097681836011E+07, -1.853264977835166E+08,  2.756285614389120E+07,
2455207.500000000, A.D. 2010-Jan-11 00:00:00.0000, -7.484231902473912E+06, -1.882667863304721E+08,  2.789552454262073E+07,
2455208.500000000, A.D. 2010-Jan-12 00:00:00.0000, -3.269291247593507E+06, -1.910750373786257E+08,  2.817901017786630E+07,
2455209.500000000, A.D. 2010-Jan-13 00:00:00.0000,  1.025595011936136E+06, -1.937490256922790E+08,  2.841493674616461E+07,
2455210.500000000, A.D. 2010-Jan-14 00:00:00.0000,  5.392389699368253E+06, -1.962871610576656E+08,  2.860499753055921E+07,
2455211.500000000, A.D. 2010-Jan-15 00:00:00.0000,  9.823311770977020E+06, -1.986884301416518E+08,  2.875093132086612E+07,
2455212.500000000, A.D. 2010-Jan-16 00:00:00.0000,  1.431086891050290E+07, -2.009523382980328E+08,  2.885450138136840E+07,
2455213.500000000, A.D. 2010-Jan-17 00:00:00.0000,  1.884788075957224E+07, -2.030788526929905E+08,  2.891747739728501E+07,
2455214.500000000, A.D. 2010-Jan-18 00:00:00.0000,  2.342749402390856E+07, -2.050683477983682E+08,  2.894162024434786E+07,
2455215.500000000, A.D. 2010-Jan-19 00:00:00.0000,  2.804319068492095E+07, -2.069215540202548E+08,  2.892866936964440E+07,
2455216.500000000, A.D. 2010-Jan-20 00:00:00.0000,  3.268879051239374E+07, -2.086395099769119E+08,  2.888033254150535E+07,
2455217.500000000, A.D. 2010-Jan-21 00:00:00.0000,  3.735844901616487E+07, -2.102235187048533E+08,  2.879827771563091E+07,
2455218.500000000, A.D. 2010-Jan-22 00:00:00.0000,  4.204665188813645E+07, -2.116751078516106E+08,  2.868412676778505E+07,
2455219.500000000, A.D. 2010-Jan-23 00:00:00.0000,  4.674820686444229E+07, -2.129959937097876E+08,  2.853945085468268E+07,
2455220.500000000, A.D. 2010-Jan-24 00:00:00.0000,  5.145823377221613E+07, -2.141880487649043E+08,  2.836576717909892E+07,
2455221.500000000, A.D. 2010-Jan-25 00:00:00.0000,  5.617215330292735E+07, -2.152532722839014E+08,  2.816453694789673E+07,
2455222.500000000, A.D. 2010-Jan-26 00:00:00.0000,  6.088567476137398E+07, -2.161937633976374E+08,  2.793716431784947E+07,
2455223.500000000, A.D. 2010-Jan-27 00:00:00.0000,  6.559478268629128E+07, -2.170116961981727E+08,  2.768499612069032E+07,
2455224.500000000, A.D. 2010-Jan-28 00:00:00.0000,  7.029572190499246E+07, -2.177092966701538E+08,  2.740932214850371E+07,
2455225.500000000, A.D. 2010-Jan-29 00:00:00.0000,  7.498498046487933E+07, -2.182888218410614E+08,  2.711137577822635E+07,
2455226.500000000, A.D. 2010-Jan-30 00:00:00.0000,  7.965927024068320E+07, -2.187525422039245E+08,  2.679233474713819E+07,
2455227.500000000, A.D. 2010-Jan-31 00:00:00.0000,  8.431550593983187E+07, -2.191027287905528E+08,  2.645332198212212E+07,
2455228.500000000, A.D. 2010-Feb-01 00:00:00.0000,  8.895078432947403E+07, -2.193416457547886E+08,  2.609540651668558E+07,
2455229.500000000, A.D. 2010-Feb-02 00:00:00.0000,  9.356236597897597E+07, -2.194715479740682E+08,  2.571960463114151E+07,
2455230.500000000, A.D. 2010-Feb-03 00:00:00.0000,  9.814766111564411E+07, -2.194946817839052E+08,  2.532688135104339E+07,
2455231.500000000, A.D. 2010-Feb-04 00:00:00.0000,  1.027042197150671E+08, -2.194132864830496E+08,  2.491815233922993E+07,
2455232.500000000, A.D. 2010-Feb-05 00:00:00.0000,  1.072297246839925E+08, -2.192295948937432E+08,  2.449428609696455E+07,
2455233.500000000, A.D. 2010-Feb-06 00:00:00.0000,  1.117219865942199E+08, -2.189458323960853E+08,  2.405610632688905E+07,
2455234.500000000, A.D. 2010-Feb-07 00:00:00.0000,  1.161789387786571E+08, -2.185642147350979E+08,  2.360439431962509E+07,
2455235.500000000, A.D. 2010-Feb-08 00:00:00.0000,  1.205986322107872E+08, -2.180869452413095E+08,  2.313989127351575E+07,
2455236.500000000, A.D. 2010-Feb-09 00:00:00.0000,  1.249792300780201E+08, -2.175162120433102E+08,  2.266330050633983E+07,
2455237.500000000, A.D. 2010-Feb-10 00:00:00.0000,  1.293190022135031E+08, -2.168541856260484E+08,  2.217528955123504E+07,
2455238.500000000, A.D. 2010-Feb-11 00:00:00.0000,  1.336163196171736E+08, -2.161030168662396E+08,  2.167649214537886E+07,
2455239.500000000, A.D. 2010-Feb-12 00:00:00.0000,  1.378696492590404E+08, -2.152648355200559E+08,  2.116751012448963E+07,
